[{"OBJECT_NAME":"STARLINK-32678","OBJECT_ID":"2024-239J","EPOCH":"2026-03-09T15:15:34.835040","MEAN_MOTION":15.30198558,"ECCENTRICITY":8.08e-5,"INCLINATION":53.1608,"RA_OF_ASC_NODE":181.5302,"ARG_OF_PERICENTER":116.9668,"MEAN_ANOMALY":243.1415,"EPHEMERIS_TYPE":0,"CLASSIFICATION_TYPE":"U","NORAD_CAT_ID":62309,"ELEMENT_SET_NO":999,"REV_AT_EPOCH":6955,"BSTAR":0.00068165,"MEAN_MOTION_DOT":0.00019883,"MEAN_MOTION_DDOT":0},{"OBJECT_NAME":"JINJUSAT-1B","OBJECT_ID":"2025-052A","EPOCH":"2026-03-09T15:55:38.242848","MEAN_MOTION":15.30194857,"ECCENTRICITY":0.00055504,"INCLINATION":97.4113,"RA_OF_ASC_NODE":325.4613,"ARG_OF_PERICENTER":82.193,"MEAN_ANOMALY":277.9941,"EPHEMERIS_TYPE":0,"CLASSIFICATION_TYPE":"U","NORAD_CAT_ID":63210,"ELEMENT_SET_NO":999,"REV_AT_EPOCH":5486,"BSTAR":0.00068430401,"MEAN_MOTION_DOT":0.00019955,"MEAN_MOTION_DDOT":0}]
