STARLINK-32678          
1 62309U 24239J   26068.63581985  .00019883  00000+0  68165-3 0  9994
2 62309  53.1608 181.5302 0000808 116.9668 243.1415 15.30198558 69558
JINJUSAT-1B             
1 63210U 25052A   26068.66363707  .00019955  00000+0  68430-3 0  9998
2 63210  97.4113 325.4613 0005550  82.1930 277.9941 15.30194857 54866
